#dP2023  5 27 18  0  0.00000000      96 __u+U ITR00 EXT  IAC
## 2263 583200.00000000   900.00000000 60091 0.7500000000000
+  118   C06C07C08C10C11C12C13C14C16C19C20C21C22C23C24C25C26
+        C27C28C29C30C32C33C34C35C36C37C38C39C40C41C42C43C44
+        C45C46E02E03E04E05E07E08E09E10E11E12E13E14E15E18E19
+        E21E24E25E26E27E30E31E33E34E36G01G02G03G04G05G06G07
+        G08G09G10G11G12G13G14G15G16G17G18G19G20G21G22G23G24
+        G25G26G27G28G29G30G31G32J02J03J04R01R02R03R04R05R07
+        R08R09R11R12R13R14R15R16R17R18R19R20R21R22R24R25  0
++         9  9 10  9  8 10 11  8  9  8  8  9  8  8  8  9  7
++         8  9  8  8  8  9  8  8  7 10 11  9  9  8  9  9  9
++         7  8  8  7  7  8  8  8  7  7  8  8  7  8  8  7  7
++         7  8  7  8  8  8  9  8  8  8  7  7  7  7  8  7  8
++         7  7  7  7  9  7  8  7  8  8  7  7  7  7  8  7  7
++         7  8  8  7  7  7  7  8  9  9 10  8  7  8  8  7  7
++         8  8  9  9 10  8  8  9  7  8  8  6  8  8  8  8  0
%c M  cc GPS ccc cccc cccc cccc cccc ccccc ccccc ccccc ccccc
%c cc cc ccc ccc cccc cccc cccc cccc ccccc ccccc ccccc ccccc
%f  0.0000000  0.000000000  0.00000000000  0.000000000000000
%f  0.0000000  0.000000000  0.00000000000  0.000000000000000
%i    0    0    0    0      0      0      0      0         0
%i    0    0    0    0      0      0      0      0         0
/* IAC                                ULTRA-RAPID PREDICTION
/* S/V CLOCKS ARE ALIGNED TO GNSS TIME                      
/* G:C1WC2W R:C1PC2P E:C1XC5X C:C2IC6I J:C1CC2S             
/* PCV:IGS20_2247 OL/AL:FES2004  NONE     YN ORB:CoN CLK:CoN
*  2023 05 28  9 30  0.00000000
PC06 -18364.004603  31583.100549 -21247.892813   -186.370952
PC07  -5307.179878  38538.305802 -15989.299025    -85.964556
PC08  -3362.712515  20730.839023  36570.308034    474.709950
PC10   1776.010863  40855.211895  -8781.310626    -70.250043
PC11  19039.825258 -20400.642517   -762.372937    643.353862
PC12  21629.008677  -7431.417360  16025.762323    671.042206
PC13   4578.655319  24258.058082  34390.207447    284.306775
PC14   8122.454451 -18214.344676 -19527.441156    324.332057
PC16 -21587.502247  31184.585410 -18496.595125     63.350817
PC19  -1439.720394  24565.970043  13158.674478   -915.463346
PC20 -12695.605069  10524.524089  22521.044436    540.155781
PC21  17162.382259  11034.691230 -19005.097406   -918.184533
PC22  11218.835797  25160.240629  -4337.279722   -467.437882
PC23 -13466.272819 -16332.275248  18192.084510   -940.759636
PC24  24160.073836  -4535.419943  13221.099589     -3.021048
PC25   6172.483826 -15293.626630  22505.365322    135.591603
PC26  26927.281714   6970.192050  -2482.410398   -126.627717
PC27 -18834.106159   -766.105313 -20606.182465    146.752927
PC28  -6035.075756 -16052.175760 -22016.479672    108.761875
PC29 -11217.200193  23614.353888   9753.334257    126.358939
PC30 -21346.515560  15912.225480  -8408.366578     -0.640189
PC32 -17280.638322 -11002.302492  18976.388116   -556.090041
PC33   1321.087455 -24573.943362 -13174.657230   -887.067096
PC34  21062.476914 -16826.808033   7150.494733    180.516301
PC35   6042.941428  16388.556718  21755.857978    618.904310
PC36  -7338.358700  14896.564340 -22401.151071   -415.838857
PC37 -26394.992247  -8291.601690   3581.371654   -784.126382
PC38 -12664.644941  19505.674828  35195.076995     81.320569
PC39 -23795.632339  32066.459371 -13841.787013     -3.099501
PC40  -9329.509576  36202.652948 -19274.902066    -24.517803
PC41 -11010.335862 -25384.543862   3744.758118   -933.994020
PC42  13324.710499  -9176.729878 -22694.739506   -672.957924
PC43  11852.162099 -23595.545427  -9010.605780     23.507145
PC44  18822.300052    347.800142  20571.630320    120.423914
PC45  13980.873710  16151.906580 -17962.499026   -103.191078
PC46 -23211.627484   5481.792221 -14458.438191    -57.307660
PE02  22217.140483  19428.799635   2344.692837     40.725620
PE03  12612.129830  14626.798281 -22422.880703    -20.791488
PE04 -17986.681048   6970.841533  22462.899957   -132.149141
PE05   -311.081005  28130.398238  -9188.388743    -63.314585
PE07  13005.145380 -24851.813396  -9466.647473    -48.411546
PE08  17833.489209  -6709.875871 -22649.071748    -90.035797
PE09 -13007.762419  24753.249920   9689.686645    -30.196282
PE10 -26602.337792  11634.623006   5742.323984   -537.000012
PE11 -19739.780607  15956.588539  15226.624547   2056.572699
PE12 -28798.744072   5792.732273  -3743.670930   -556.899875
PE13  20331.350181 -15731.008166 -14669.157324    -19.214947
PE14   4638.553607 -30733.779926  -7013.865072    237.822458
PE15  28766.041045  -5629.886331   4085.680678    -25.129870
PE18  -7724.121937  22997.413988    932.772806    115.695171
PE19 -11022.804243 -17201.587396  21433.286139  -2430.875854
PE21  -9905.902475 -23682.158375  14737.763311   -531.685819
PE24  -9580.072559  14009.608680 -24266.169536   -123.393406
PE25   9606.562450  23640.090952 -14997.903006   -605.810086
PE26   -793.068577 -16465.533423 -24587.737968    117.309863
PE27   8867.921427 -14532.366286  24215.575307    -60.509416
PE30  22430.341053   3644.632576  18963.300858   -209.070401
PE31 -22206.770567  -3075.107503 -19321.470178   -524.699543
PE33 -20156.953765  -7707.427834 -20268.913308   -443.879156
PE34  20289.732262   7573.525212  20167.935079    -47.781945
PE36   -128.701878  16490.179623  24577.689686    -62.750772
PG01  -2754.982714 -14471.472904 -22431.218535    182.143780
PG02  15352.497678 -15606.659410 -14439.629629   -591.615087
PG03 -10800.729816 -21834.175349 -10864.703577   -289.645433
PG04  -1598.236530 -23275.264730  12601.129424     53.045068
PG05  -3795.533359  16048.569987  20618.844017   -128.908307
PG06 -26075.783892   5062.622479  -1600.379519    587.255745
PG07 -18316.454684  -8689.308562  17865.223073    167.117919
PG08   5928.158226 -25649.787889  -1060.288199   -124.610329
PG09  -9680.806359 -15749.790616  18982.651641   -148.906985
PG10  20866.734160   7417.164107 -14713.671928    -38.779274
PG11 -19808.150925  12568.762966  12426.054416   -213.425946
PG12   6732.838004  22280.966012 -13146.648642   -381.517809
PG13 -13380.151642  22327.881675   4510.672629    526.172016
PG14 -21201.041434 -10146.053656 -12503.529377     71.783865
PG15  -2253.081419  26274.630703  -2002.468198     43.601366
PG16   8712.242162 -12682.735688  21290.472235   -497.017996
PG17 -15429.281427    345.517443 -21205.968649    716.398562
PG18  20599.625843   6256.743426  15655.982651   -284.622215
PG19 -17120.349509   8516.833219 -18524.506784    322.880943
PG20 -11843.343530  10338.052616  21423.861283    431.138598
PG21   6338.003158 -16277.814940 -19184.988465    153.535738
PG22  16660.566920 -12557.901403 -15890.348289    488.697941
PG23  20650.124584  16297.094794  -4219.245270     27.965940
PG24  -1158.892527  16723.191852 -20884.006173   -204.778390
PG25  16758.282905  20551.987491  -3468.124524    445.925868
PG26  17842.485182  -3163.363152  19407.050808    240.144710
PG27  12721.703358 -20982.249367   9369.400592     28.171515
PG28  25890.139187  -4654.670599  -3679.564719     80.861830
PG29   6074.043766  18467.836325  18000.558387   -600.987190
PG30 -24982.356589  -1236.830147   9429.978058   -514.595954
PG31  23328.996267 -10664.147965   7561.585783   -217.007352
PG32  16022.415934  -3438.992422 -20682.103816   -487.132530
PJ02 -22108.984470  19237.440746 -25670.453580     -0.183801
PJ03 -29409.961276  30009.044226   9459.572088      5.120385
PJ04 -26839.381632  26710.026639  24515.585961     94.845588
PR01   7338.960050  23185.543921  -7664.223598     58.341629
PR02  11062.463641   8931.699345 -21145.312293    -22.784199
PR03   8890.120069 -10328.283809 -21500.572535     78.634008
PR04   1828.574609 -23371.614863 -10011.819619    188.928016
PR05  -6101.487018 -23769.241002   6941.915867    113.248997
PR07  -8667.641915  11222.163421  21259.095235     56.806484
PR08  -1707.870432  23470.039027   9940.420004    -71.009384
PR09 -24112.384125  -8216.775048  -1971.227406    122.625853
PR11  -3761.484366  10257.405226 -23037.749494    -65.893455
PR12  15300.220235  13945.903986 -14884.747985     27.637967
PR13  23729.506162   9357.326034     47.106740    -35.507470
PR14  18543.706558  -1668.470917  17438.648462     24.703322
PR15   2579.993246 -10862.558373  22955.931377     89.042516
PR16 -15166.273962 -13779.953372  15226.268513     15.015075
PR17  21155.255151 -13738.288267   3924.789225    633.908653
PR18  13949.192970 -17300.305247 -12466.324147     83.745071
PR19   1222.162235 -12794.862613 -22040.437533   -234.223689
PR20 -16545.711673    988.697654 -19404.476715    -93.644366
PR21 -20996.985212  14253.392186  -2452.682529    -10.879793
PR22 -13727.302263  17005.182050  13188.785120     80.211070
PR24  17084.292295  -1692.763728  18880.705500    174.186886
PR25 -21783.625505  12621.730825  -4044.012680     61.438772
EOF
